0 FENGYUN 1C DEB
1 38802U 99025EUS 13275.38775556  .00000267  00000-0  16287-3 0   207
2 38802 098.9438 326.8413 0035223 169.9094 190.2453 14.14124850230306
0 FENGYUN 1C DEB
1 38802U 99025EUS 13283.94906982  .00000346  00000-0  20371-3 0   215
2 38802 098.9461 335.4034 0037436 146.6943 213.7355 14.14132422231510
